{
  "type": "FeatureCollection",
  "features": [
    {
      "type": "Feature",
      "properties": {
        "norad_id": 31248,
        "name": "FENGYUN 1C DEB",
        "group": "fengyun-1c-debris",
        "lat": -80.15437440163244,
        "lon": 105.92251801044594,
        "alt_km": 886.8801165767709,
        "timestamp": "2025-12-04T07:39:36.416263+00:00",
        "meta_object_name": "FENGYUN 1C DEB",
        "meta_object_id": "1999-025BME",
        "meta_epoch": "2025-12-02T02:45:39.580416",
        "meta_mean_motion": 13.92758198,
        "meta_eccentricity": 0.0109757,
        "meta_inclination": 99.2654,
        "meta_ra_of_asc_node": 33.5687,
        "meta_arg_of_pericenter": 340.39,
        "meta_mean_anomaly": 48.6423,
        "meta_ephemeris_type": 0,
        "meta_classification_type": "U",
        "meta_norad_cat_id": 31248,
        "meta_element_set_no": 999,
        "meta_rev_at_epoch": 94676,
        "meta_bstar": 0.00064820906,
        "meta_mean_motion_dot": 8.36e-06,
        "meta_mean_motion_ddot": 0,
        "tle_line1": "1 31248U 99025BME 25336.11504144  .00000836  00000+0  64821-3 0  9992",
        "tle_line2": "2 31248  99.2654  33.5687 0109757 340.3900  48.6423 13.92758198946767"
      },
      "geometry": {
        "type": "Point",
        "coordinates": [
          105.92251801044594,
          -80.15437440163244
        ]
      }
    },
    {
      "type": "Feature",
      "properties": {
        "norad_id": 31250,
        "name": "FENGYUN 1C DEB",
        "group": "fengyun-1c-debris",
        "lat": 25.92654905379839,
        "lon": 13.113886450207145,
        "alt_km": 977.6002890367799,
        "timestamp": "2025-12-04T07:39:36.416273+00:00",
        "meta_object_name": "FENGYUN 1C DEB",
        "meta_object_id": "1999-025BMG",
        "meta_epoch": "2025-11-27T20:53:06.321984",
        "meta_mean_motion": 14.02996088,
        "meta_eccentricity": 0.01342537,
        "meta_inclination": 98.3888,
        "meta_ra_of_asc_node": 183.0534,
        "meta_arg_of_pericenter": 339.6638,
        "meta_mean_anomaly": 19.9213,
        "meta_ephemeris_type": 0,
        "meta_classification_type": "U",
        "meta_norad_cat_id": 31250,
        "meta_element_set_no": 999,
        "meta_rev_at_epoch": 95309,
        "meta_bstar": 0.0013427936,
        "meta_mean_motion_dot": 2.218e-05,
        "meta_mean_motion_ddot": 0,
        "tle_line1": "1 31250U 99025BMG 25331.87021206  .00002218  00000+0  13428-2 0  9998",
        "tle_line2": "2 31250  98.3888 183.0534 0134253 339.6638  19.9213 14.02996088953095"
      },
      "geometry": {
        "type": "Point",
        "coordinates": [
          13.113886450207145,
          25.92654905379839
        ]
      }
    },
    {
      "type": "Feature",
      "properties": {
        "norad_id": 31252,
        "name": "FENGYUN 1C DEB",
        "group": "fengyun-1c-debris",
        "lat": 12.590789758152383,
        "lon": 179.26996610594705,
        "alt_km": 627.1424195293939,
        "timestamp": "2025-12-04T07:39:36.416281+00:00",
        "meta_object_name": "FENGYUN 1C DEB",
        "meta_object_id": "1999-025BMJ",
        "meta_epoch": "2025-12-03T19:12:16.624224",
        "meta_mean_motion": 14.40130868,
        "meta_eccentricity": 0.02133152,
        "meta_inclination": 98.3178,
        "meta_ra_of_asc_node": 356.8928,
        "meta_arg_of_pericenter": 199.1553,
        "meta_mean_anomaly": 160.1527,
        "meta_ephemeris_type": 0,
        "meta_classification_type": "U",
        "meta_norad_cat_id": 31252,
        "meta_element_set_no": 999,
        "meta_rev_at_epoch": 97078,
        "meta_bstar": 0.0007961307,
        "meta_mean_motion_dot": 3.239e-05,
        "meta_mean_motion_ddot": 0,
        "tle_line1": "1 31252U 99025BMJ 25337.80019241  .00003239  00000+0  79613-3 0  9998",
        "tle_line2": "2 31252  98.3178 356.8928 0213315 199.1553 160.1527 14.40130868970788"
      },
      "geometry": {
        "type": "Point",
        "coordinates": [
          179.26996610594705,
          12.590789758152383
        ]
      }
    },
    {
      "type": "Feature",
      "properties": {
        "norad_id": 31253,
        "name": "FENGYUN 1C DEB",
        "group": "fengyun-1c-debris",
        "lat": -51.574843632481304,
        "lon": 54.97091840404961,
        "alt_km": 1093.2366576874265,
        "timestamp": "2025-12-04T07:39:36.416290+00:00",
        "meta_object_name": "FENGYUN 1C DEB",
        "meta_object_id": "1999-025BMK",
        "meta_epoch": "2025-12-03T09:40:45.297984",
        "meta_mean_motion": 14.03577789,
        "meta_eccentricity": 0.02905849,
        "meta_inclination": 99.0777,
        "meta_ra_of_asc_node": 42.429,
        "meta_arg_of_pericenter": 116.7356,
        "meta_mean_anomaly": 246.3862,
        "meta_ephemeris_type": 0,
        "meta_classification_type": "U",
        "meta_norad_cat_id": 31253,
        "meta_element_set_no": 999,
        "meta_rev_at_epoch": 68867,
        "meta_bstar": 0.00066608473,
        "meta_mean_motion_dot": 1.476e-05,
        "meta_mean_motion_ddot": 0,
        "tle_line1": "1 31253U 99025BMK 25337.40330206  .00001476  00000+0  66608-3 0  9993",
        "tle_line2": "2 31253  99.0777  42.4290 0290584 116.7356 246.3862 14.03577789688670"
      },
      "geometry": {
        "type": "Point",
        "coordinates": [
          54.97091840404961,
          -51.574843632481304
        ]
      }
    },
    {
      "type": "Feature",
      "properties": {
        "norad_id": 31254,
        "name": "FENGYUN 1C DEB",
        "group": "fengyun-1c-debris",
        "lat": 81.4057286176046,
        "lon": -71.71230748813252,
        "alt_km": 839.8094646850141,
        "timestamp": "2025-12-04T07:39:36.416299+00:00",
        "meta_object_name": "FENGYUN 1C DEB",
        "meta_object_id": "1999-025BML",
        "meta_epoch": "2025-11-27T22:14:27.134880",
        "meta_mean_motion": 14.36276197,
        "meta_eccentricity": 0.0150752,
        "meta_inclination": 98.4636,
        "meta_ra_of_asc_node": 21.8734,
        "meta_arg_of_pericenter": 246.3529,
        "meta_mean_anomaly": 292.2282,
        "meta_ephemeris_type": 0,
        "meta_classification_type": "U",
        "meta_norad_cat_id": 31254,
        "meta_element_set_no": 999,
        "meta_rev_at_epoch": 97303,
        "meta_bstar": 0.00058845,
        "meta_mean_motion_dot": 1.909e-05,
        "meta_mean_motion_ddot": 0,
        "tle_line1": "1 31254U 99025BML 25331.92670295  .00001909  00000+0  58845-3 0  9995",
        "tle_line2": "2 31254  98.4636  21.8734 0150752 246.3529 292.2282 14.36276197973034"
      },
      "geometry": {
        "type": "Point",
        "coordinates": [
          -71.71230748813252,
          81.4057286176046
        ]
      }
    },
    {
      "type": "Feature",
      "properties": {
        "norad_id": 31255,
        "name": "FENGYUN 1C DEB",
        "group": "fengyun-1c-debris",
        "lat": 76.12685454401371,
        "lon": 16.716525550479872,
        "alt_km": 859.2789492103539,
        "timestamp": "2025-12-04T07:39:36.416308+00:00",
        "meta_object_name": "FENGYUN 1C DEB",
        "meta_object_id": "1999-025BMM",
        "meta_epoch": "2025-12-03T10:45:43.550208",
        "meta_mean_motion": 14.09708841,
        "meta_eccentricity": 0.02710338,
        "meta_inclination": 99.3086,
        "meta_ra_of_asc_node": 154.2032,
        "meta_arg_of_pericenter": 9.3808,
        "meta_mean_anomaly": 351.2281,
        "meta_ephemeris_type": 0,
        "meta_classification_type": "U",
        "meta_norad_cat_id": 31255,
        "meta_element_set_no": 999,
        "meta_rev_at_epoch": 96670,
        "meta_bstar": 0.0003435901,
        "meta_mean_motion_dot": 7.96e-06,
        "meta_mean_motion_ddot": 0,
        "tle_line1": "1 31255U 99025BMM 25337.44842072  .00000796  00000+0  34359-3 0  9990",
        "tle_line2": "2 31255  99.3086 154.2032 0271033   9.3808 351.2281 14.09708841966706"
      },
      "geometry": {
        "type": "Point",
        "coordinates": [
          16.716525550479872,
          76.12685454401371
        ]
      }
    },
    {
      "type": "Feature",
      "properties": {
        "norad_id": 31256,
        "name": "FENGYUN 1C DEB",
        "group": "fengyun-1c-debris",
        "lat": 14.278198620169531,
        "lon": 8.577844152163815,
        "alt_km": 684.3028042875667,
        "timestamp": "2025-12-04T07:39:36.416318+00:00",
        "meta_object_name": "FENGYUN 1C DEB",
        "meta_object_id": "1999-025BMN",
        "meta_epoch": "2025-12-03T08:38:37.232160",
        "meta_mean_motion": 14.03080392,
        "meta_eccentricity": 0.03081552,
        "meta_inclination": 98.6841,
        "meta_ra_of_asc_node": 185.432,
        "meta_arg_of_pericenter": 140.4727,
        "meta_mean_anomaly": 221.936,
        "meta_ephemeris_type": 0,
        "meta_classification_type": "U",
        "meta_norad_cat_id": 31256,
        "meta_element_set_no": 999,
        "meta_rev_at_epoch": 64850,
        "meta_bstar": 0.0040356477,
        "meta_mean_motion_dot": 9.524e-05,
        "meta_mean_motion_ddot": 0,
        "tle_line1": "1 31256U 99025BMN 25337.36015315  .00009524  00000+0  40356-2 0  9995",
        "tle_line2": "2 31256  98.6841 185.4320 0308155 140.4727 221.9360 14.03080392648501"
      },
      "geometry": {
        "type": "Point",
        "coordinates": [
          8.577844152163815,
          14.278198620169531
        ]
      }
    }
  ]
}